[{"OBJECT_NAME":"STARLINK-3292","OBJECT_ID":"2021-125U","EPOCH":"2026-03-09T22:14:40.531200","MEAN_MOTION":15.08854147,"ECCENTRICITY":0.00013563,"INCLINATION":53.216,"RA_OF_ASC_NODE":243.6683,"ARG_OF_PERICENTER":93.9191,"MEAN_ANOMALY":266.1957,"EPHEMERIS_TYPE":0,"CLASSIFICATION_TYPE":"U","NORAD_CAT_ID":50174,"ELEMENT_SET_NO":999,"REV_AT_EPOCH":23674,"BSTAR":-0.00023246581,"MEAN_MOTION_DOT":-3.987e-5,"MEAN_MOTION_DDOT":0},{"OBJECT_NAME":"THOR ABLESTAR DEB","OBJECT_ID":"1961-015HM","EPOCH":"2026-03-09T12:53:31.788672","MEAN_MOTION":15.12609006,"ECCENTRICITY":0.0020802,"INCLINATION":66.4912,"RA_OF_ASC_NODE":108.7707,"ARG_OF_PERICENTER":275.236,"MEAN_ANOMALY":209.827,"EPHEMERIS_TYPE":0,"CLASSIFICATION_TYPE":"U","NORAD_CAT_ID":660,"ELEMENT_SET_NO":999,"REV_AT_EPOCH":37032,"BSTAR":0.0020976473,"MEAN_MOTION_DOT":0.00036985,"MEAN_MOTION_DDOT":0}]
